[{"OBJECT_NAME":"STARLINK-5926","OBJECT_ID":"2023-037AG","EPOCH":"2026-03-09T21:23:16.268928","MEAN_MOTION":14.98337472,"ECCENTRICITY":0.00027242,"INCLINATION":69.998,"RA_OF_ASC_NODE":283.8156,"ARG_OF_PERICENTER":270.4754,"MEAN_ANOMALY":89.6093,"EPHEMERIS_TYPE":0,"CLASSIFICATION_TYPE":"U","NORAD_CAT_ID":55944,"ELEMENT_SET_NO":999,"REV_AT_EPOCH":16401,"BSTAR":4.3170386e-5,"MEAN_MOTION_DOT":4.22e-6,"MEAN_MOTION_DDOT":0},{"OBJECT_NAME":"FENGYUN 1C DEB","OBJECT_ID":"1999-025DZG","EPOCH":"2026-02-24T08:24:33.782400","MEAN_MOTION":14.7853018,"ECCENTRICITY":0.01019027,"INCLINATION":99.0018,"RA_OF_ASC_NODE":260.336,"ARG_OF_PERICENTER":182.3725,"MEAN_ANOMALY":177.7013,"EPHEMERIS_TYPE":0,"CLASSIFICATION_TYPE":"U","NORAD_CAT_ID":36686,"ELEMENT_SET_NO":999,"REV_AT_EPOCH":66939,"BSTAR":0.00093391276,"MEAN_MOTION_DOT":7.381e-5,"MEAN_MOTION_DDOT":0}]
